{"fetched_at":"2026-03-29T16:36:15Z","count":15609,"tles":[{"name":"STARLINK-6099","line1":"1 57108U 23090H   26087.92306333  .00000090  00000+0  21762-4 0  9997","line2":"2 57108  43.0030 170.3926 0001188 271.4143  88.6563 15.02533841153301","category":"Starlink"}]}