{
  "norad_id": 57108,
  "name": "STARLINK-6099",
  "history": [
    {
      "epoch": "2026-03-28T22:09:12.671712",
      "apogee_km": 559.9103209200703,
      "perigee_km": 558.2620366927858,
      "latitude_deg": 6.700068093710089,
      "longitude_deg": -20.585920320125297,
      "semi_major_axis_km": 6937.223178806427,
      "eccentricity": 0.0001188,
      "inclination_deg": 43.003,
      "raan_deg": 170.3926,
      "arg_perigee_deg": 271.4143,
      "mean_anomaly_deg": 88.6563,
      "mean_motion_rev_day": 15.02533841
    }
  ]
}